{
    "links": {
        "self": "http://www.neowsapp.com/rest/v1/neo/3729540?api_key=iIulBulltgU6a56xZRHN4H3l9WmuAYTsLGpBGhQ2"
    },
    "id": "3729540",
    "neo_reference_id": "3729540",
    "name": "(2015 TC144)",
    "designation": "2015 TC144",
    "nasa_jpl_url": "http://ssd.jpl.nasa.gov/sbdb.cgi?sstr=3729540",
    "absolute_magnitude_h": 24.4,
    "estimated_diameter": {
        "kilometers": {
            "estimated_diameter_min": 0.0350392641,
            "estimated_diameter_max": 0.0783501764
        },
        "meters": {
            "estimated_diameter_min": 35.0392641108,
            "estimated_diameter_max": 78.3501764334
        },
        "miles": {
            "estimated_diameter_min": 0.0217723826,
            "estimated_diameter_max": 0.0486845275
        },
        "feet": {
            "estimated_diameter_min": 114.9582192654,
            "estimated_diameter_max": 257.0543928497
        }
    },
    "is_potentially_hazardous_asteroid": false,
    "close_approach_data": [
        {
            "close_approach_date": "2013-09-29",
            "close_approach_date_full": "2013-Sep-29 02:30",
            "epoch_date_close_approach": 1380421800000,
            "relative_velocity": {
                "kilometers_per_second": "6.3425740054",
                "kilometers_per_hour": "22833.2664195902",
                "miles_per_hour": "14187.7037927726"
            },
            "miss_distance": {
                "astronomical": "1.066457887",
                "lunar": "414.852118043",
                "kilometers": "159539828.33990069",
                "miles": "99133452.451141922"
            },
            "orbiting_body": "Juptr"
        },
        {
            "close_approach_date": "2015-10-08",
            "close_approach_date_full": "2015-Oct-08 20:35",
            "epoch_date_close_approach": 1444336500000,
            "relative_velocity": {
                "kilometers_per_second": "24.7039858163",
                "kilometers_per_hour": "88934.3489385011",
                "miles_per_hour": "55260.3458723703"
            },
            "miss_distance": {
                "astronomical": "0.0217862891",
                "lunar": "8.4748664599",
                "kilometers": "3259182.444564217",
                "miles": "2025162.0630395146"
            },
            "orbiting_body": "Earth"
        }
    ],
    "orbital_data": {
        "orbit_id": "8",
        "orbit_determination_date": "2017-04-06 08:31:28",
        "first_observation_date": "2015-10-11",
        "last_observation_date": "2015-10-14",
        "data_arc_in_days": 3,
        "observations_used": 80,
        "orbit_uncertainty": "8",
        "minimum_orbit_intersection": ".0217071",
        "jupiter_tisserand_invariant": "3.082",
        "epoch_osculation": "2457307.5",
        "eccentricity": ".7779962714706713",
        "semi_major_axis": "2.318287479822948",
        "inclination": "3.068870364408467",
        "ascending_node_longitude": "218.7842942960936",
        "orbital_period": "1289.286281162852",
        "perihelion_distance": ".5146684643235553",
        "perihelion_argument": "59.8357233638811",
        "aphelion_distance": "4.12190649532234",
        "perihelion_time": "2457259.175262996376",
        "mean_anomaly": "13.49343863770408",
        "mean_motion": ".2792242539611167",
        "equinox": "J2000",
        "orbit_class": {
            "orbit_class_type": "APO",
            "orbit_class_description": "Near-Earth asteroid orbits which cross the Earth’s orbit similar to that of 1862 Apollo",
            "orbit_class_range": "a (semi-major axis) > 1.0 AU; q (perihelion) < 1.017 AU"
        }
    },
    "is_sentry_object": false
}